satname,norad_id,inclination_deg,eccentricity,mean_motion_rev_per_day,perigee_km,apogee_km,l1,l2
STARLINK-1234,45190,53.0342,0.0002429,15.85296704,313.8635388302473,317.11530254541685,1 45190U 20012N   26192.82479250  .00092364  00000+0  37882-3 0  9995,2 45190  53.0342  69.6752 0002429 233.2357 126.8443 15.85296704355407
STARLINK-1269,45197,53.1531,0.0003291,15.37804433,450.35522339693034,454.8512166097371,1 45197U 20012V   26192.35580139  .00030690  00000+0  82117-3 0  9994,2 45197  53.1531 182.6610 0003291  35.0820 325.0400 15.37804433353882
STARLINK-1154,45198,53.0396,0.0004152,15.66404469,366.4010500403656,372.00404079888176,1 45198U 20012W   26191.22667782  .00039330  00000+0  37500-3 0  9996,2 45198  53.0396 135.7433 0004152  77.8757 282.2723 15.66404469354388
STARLINK-1199,45201,53.1547,0.0005703,15.37644159,449.182031126782,456.97371481088976,1 45201U 20012Z   26190.37746770  .00044806  00000+0  11977-2 0  9994,2 45201  53.1547 176.2308 0005703  27.3986 332.7318 15.37644159353829
STARLINK-1209,45206,53.0355,0.0001122,15.74466858,345.39426212836406,346.90319184550026,1 45206U 20012AE  26192.86149287  .00048730  00000+0  33106-3 0  9994,2 45206  53.0355  86.5883 0001122 202.2596 157.8374 15.74466858354326
STARLINK-1231,45212,53.033,0.000282,15.29949119,474.0314006698227,477.8971137788967,1 45212U 20012AL  26192.41000844  .00015678  00000+0  54447-3 0  9993,2 45212  53.0330 163.3289 0002820 104.8926 255.2386 15.29949119354119
STARLINK-1271,45217,53.153,0.000525,15.37934673,448.63163757866914,455.80350988108694,1 45217U 20012AR  26191.99588096  .00032453  00000+0  86370-3 0  9990,2 45217  53.1530 168.7045 0005250  39.1039 321.0343 15.37934673354079
STARLINK-1191,45222,53.1525,0.0002564,15.4235053,437.4261988813287,440.92211604287513,1 45222U 20012AW  26192.46990404  .00056421  00000+0  12882-2 0  9996,2 45222  53.1525 138.4757 0002564  14.1178 345.9900 15.42350530354541
STARLINK-1212,45223,53.0378,0.0001517,15.73163037,348.84292120211285,350.88419657167833,1 45223U 20012AX  26192.81539140  .00070265  00000+0  50157-3 0  9992,2 45223  53.0378 102.4288 0001517 168.3537 191.7516 15.73163037355050
STARLINK-1215,45225,53.1542,0.000528,15.38078479,448.18561875152045,455.39802358667566,1 45225U 20012AZ  26192.51213560  .00033375  00000+0  88370-3 0  9995,2 45225  53.1542 140.5108 0005280  45.9132 314.2306 15.38078479354472
STARLINK-1221,45227,53.0639,0.0002943,15.46485471,425.01404701832416,429.01956054722996,1 45227U 20012BB  26192.80193703  .00009986  00000+0  20644-3 0  9996,2 45227  53.0639  39.5988 0002943  58.5763 301.5531 15.46485471355884
STARLINK-1222,45228,53.0513,0.0003696,15.57489423,392.4225003211686,397.4291483609213,1 45228U 20012BC  26191.95827019  .00022618  00000+0  30789-3 0  9994,2 45228  53.0513 108.3429 0003696  91.5541 268.5893 15.57489423354782
STARLINK-1226,45229,53.1529,0.0004926,15.47788643,419.8461645816078,426.54683834725074,1 45229U 20012BD  26192.27522438  .00042951  00000+0  81806-3 0  9996,2 45229  53.1529 135.4596 0004926  43.5296 316.6101 15.47788643354465
STARLINK-1227,45230,53.1501,0.0005133,15.47892617,419.4009601779144,426.3828964757349,1 45230U 20012BE  26192.34755513  .00043484  00000+0  82502-3 0  9994,2 45230  53.1501 135.1921 0005133  37.8817 322.2552 15.47892617354596
STARLINK-1246,45235,53.1537,0.0004984,15.3798735,448.65743932627447,455.46578130103444,1 45235U 20012BK  26192.35996684  .00030170  00000+0  80258-3 0  9990,2 45235  53.1537 182.2444 0004984  11.0819 349.0294 15.37987350353948
STARLINK-1270,45237,53.0381,0.0001337,15.71992716,352.3024168697839,354.1023770245265,1 45237U 20012BM  26191.98619159  .00044264  00000+0  33477-3 0  9999,2 45237  53.0381 108.4601 0001337 164.4138 195.6921 15.71992716354894
STARLINK-1279,45360,53.0306,0.0004139,15.86547051,309.20312127874877,314.74119363929367,1 45360U 20019A   26192.83733142  .00100877  00000+0  38865-3 0  9996,2 45360  53.0306 204.0568 0004139  29.9211 330.2049 15.86547051350183
STARLINK-1301,45361,53.029,0.0006227,15.8810722,303.4266271239776,311.75303131708915,1 45361U 20019B   26192.44174509  .00106099  00000+0  37791-3 0  9999,2 45361  53.0290 208.0005 0006227  31.3692 328.7703 15.88107220350109
STARLINK-1262,45366,53.1549,0.0002028,15.37047133,453.46096792876415,456.23242611627666,1 45366U 20019G   26192.61320852  .00032085  00000+0  87916-3 0  9994,2 45366  53.1549 307.7475 0002028 267.7148  92.3623 15.37047133348759
STARLINK-1273,45367,53.0415,0.0002862,15.62097513,379.66455576030876,383.53382875675743,1 45367U 20019H   26192.52961779  .00060743  00000+0  68134-3 0  9997,2 45367  53.0415 277.6397 0002862 348.7484  11.3465 15.62097513349142
STARLINK-1277,45369,53.0402,0.0002982,15.70659893,355.0014694701731,359.0183110755315,1 45369U 20019K   26192.49267141  .00037803  00000+0  30321-3 0  9995,2 45369  53.0402 269.7626 0002982  15.3610 344.7497 15.70659893349252
STARLINK-1281,45370,53.1575,0.0001147,15.3785329,451.67507662411117,453.2420152423483,1 45370U 20019L   26192.60658387  .00029954  00000+0  80061-3 0  9990,2 45370  53.1575 307.2162 0001147 239.3032 120.7859 15.37853290348766
STARLINK-1300,45374,53.1565,0.0002644,15.38450983,448.88375125524,452.49483459894145,1 45374U 20019Q   26192.60602544  .00034808  00000+0  91022-3 0  9991,2 45374  53.1565 306.9878 0002644 221.2223 138.8582 15.38450983348760
STARLINK-1302,45375,53.0434,8.29e-05,15.70907759,355.7431156832099,356.85968557003434,1 45375U 20019R   26192.52619572  .00037250  00000+0  29583-3 0  9999,2 45375  53.0434 265.3925 0000829  92.0567 268.0545 15.70907759349315
STARLINK-1304,45376,53.0402,0.0001059,15.66562822,368.03334806451403,369.4623382742975,1 45376U 20019S   26192.68080984  .00029706  00000+0  28314-3 0  9994,2 45376  53.0402 266.9578 0001059 321.0494  39.0444 15.66562822349308
STARLINK-1305,45377,53.0348,0.0007004,15.7613991,336.6830339402586,346.09574650768354,1 45377U 20019T   26192.63503068  .00048414  00000+0  30550-3 0  9995,2 45377  53.0348 243.5135 0007004   8.7971 351.3169 15.76139910349632
STARLINK-1319,45379,53.0333,0.0004009,15.84069481,316.2612737467589,321.63099500390126,1 45379U 20019V   26192.77223166  .00067125  00000+0  29357-3 0  9993,2 45379  53.0333 232.8063 0004009  23.6206 336.5000 15.84069481349798
STARLINK-1266,45383,53.0426,0.0004196,15.69080674,358.7002788927166,364.35620596416265,1 45383U 20019Z   26192.64315133  .00033235  00000+0  28525-3 0  9991,2 45383  53.0426 251.4901 0004196   6.8559 353.2513 15.69080674349510
STARLINK-1267,45384,53.0404,0.0002598,15.73644105,346.74472996366785,350.2398865522391,1 45384U 20019AA  26192.17891565  .00046203  00000+0  32548-3 0  9997,2 45384  53.0404 244.4247 0002598  33.1158 327.0022 15.73644105349574
STARLINK-1272,45386,53.0359,0.0002845,15.78731195,332.12493668970365,335.9441623013672,1 45386U 20019AC  26192.48503981  .00057141  00000+0  32078-3 0  9996,2 45386  53.0359 220.5525 0002845  46.5143 313.6113 15.78731195349939
STARLINK-1274,45387,53.0161,0.0006046,15.6866894,358.6319985242926,366.7830277095536,1 45387U 20019AD  26192.51831191  .00074157  00000+0  63767-3 0  9993,2 45387  53.0161 221.8040 0006046 325.3294  34.7327 15.68668940349911
STARLINK-1280,45388,53.0301,0.0007598,15.91657318,292.572457429992,302.71697532619964,1 45388U 20019AE  26192.39889801  .00147873  19239-4  45176-3 0  9990,2 45388  53.0301 225.5051 0007598  22.5189 337.6169 15.91657318349847
STARLINK-1283,45389,53.0346,0.0004228,15.76045805,338.815738686686,344.49799638107106,1 45389U 20019AF  26191.68950258  .00056783  00000+0  35905-3 0  9996,2 45389  53.0346 223.7394 0004228 359.2854   0.8158 15.76045805349823
STARLINK-1284,45390,53.0386,0.0003974,15.74127227,344.4432903016468,349.7885213111813,1 45390U 20019AG  26192.12497639  .00049682  00000+0  34228-3 0  9994,2 45390  53.0386 245.8934 0003974  59.8163 300.3249 15.74127227349542
STARLINK-1297,45395,53.0395,0.0003516,15.77295308,335.74610627891434,340.4689694379358,1 45395U 20019AM  26192.81236810  .00052988  00000+0  31756-3 0  9993,2 45395  53.0395 241.2130 0003516  26.3269 333.7929 15.77295308348850
STARLINK-1307,45397,53.0506,0.0001883,15.58991917,389.2988389966549,391.84793532846106,1 45397U 20019AP  26192.49558607  .00020056  00000+0  25894-3 0  9997,2 45397  53.0506 252.5149 0001883   1.7471 358.3547 15.58991917349317
STARLINK-1255,45399,53.0312,0.0001135,15.68808056,361.54396477401133,363.0740460172374,1 45399U 20019AR  26190.48281131  .00037837  00000+0  32763-3 0  9999,2 45399  53.0312 227.9029 0001135 323.9181  36.1758 15.68808056349467
STARLINK-1260,45404,53.1536,0.0001409,15.41103543,441.89007839774604,443.81223286000295,1 45404U 20019AW  26192.51561732  .00032983  00000+0  79138-3 0  9994,2 45404  53.1536 269.5929 0001409 285.5790  74.5060 15.41103543348996
STARLINK-1263,45405,53.1573,0.0002706,15.38144607,449.7479388748334,453.4441904094165,1 45405U 20019AX  26192.48574459  .00024323  00000+0  64638-3 0  9999,2 45405  53.1573 271.7082 0002706 301.6334  58.4405 15.38144607348961
STARLINK-1265,45406,53.1535,0.0002309,15.41604168,439.79973889251596,442.94898924044173,1 45406U 20019AY  26192.49960154  .00040211  00000+0  94594-3 0  9990,2 45406  53.1535 269.5691 0002309 343.2608  16.8321 15.41604168348991
STARLINK-1278,45408,53.0363,0.0002195,15.78338508,333.6742525735426,336.6213846089049,1 45408U 20019BA  26191.61284712  .00053028  00000+0  30342-3 0  9995,2 45408  53.0363 245.8786 0002195  33.4113 326.7045 15.78338508349220
STARLINK-1296,45412,53.1541,0.0001376,15.41716666,440.10429756133,441.98093579183933,1 45412U 20019BE  26192.53515737  .00033322  00000+0  78330-3 0  9990,2 45412  53.1541 269.0457 0001376 326.3931  33.6987 15.41716666349009
STARLINK-1309,45414,53.0559,0.0003265,15.76688727,337.63658596843925,342.0234184208721,1 45414U 20019BG  26192.61161331  .00046459  00000+0  28672-3 0  9997,2 45414  53.0559 235.2352 0003265  35.8511 324.2727 15.76688727349446
